G90
; Program generated by RoboDK v5.8.0 for Primo_v1_1 on 07/11/2025 15:10:16
; Using nominal kinematics.
; TOOL_FRAME X0.000 Y0.000 Z120.000 R0.000 P0.000 W0.000
G1 X-112.967000 Y-54.941000 Z-54.503700 A1.031760 B-22.970700 C1.120590
G1 X-71.86 Y42.18 Z-9.22 A93.36 B-37.21 C20.82 
M280 P7 S258
G4 S2.000
G1 X-72 Y56.98 Z-7.47 A94.95 B-24.19 C22.52
M280 P7 S57
G4 S2.000
G1 X-71.86 Y42.18 Z-9.22 A93.36 B-37.21 C20.82 
G1 X-135.085000 Y48.48 Z1.09 A91.52 B-43.66 C46.02
G4 S2.000
G1 X-135.085000 Y61.99 Z2.18 A92.02 B-31.25 C46.65
M280 P7 S258
G4 S2.000
G1 X-135.085000 Y48.48 Z1.09 A91.52 B-43.66 C46.02
M280 P7 S57
G1 X-112.967000 Y-54.941000 Z-54.503700 A1.031760 B-22.970700 C1.120590
G1 X-135.085000 Y48.48 Z1.09 A91.52 B-43.66 C46.02
M280 P7 S258
G4 S2.000
G1 X-135.085000 Y61.99 Z2.18 A92.02 B-31.25 C46.65
M280 P7 S57
G4 S2.000
G1 X-135.085000 Y48.48 Z1.09 A91.52 B-43.66 C46.02
G1 X-71.86 Y42.18 Z-9.22 A93.36 B-37.21 C20.82 
G4 S2.000
G1 X-72 Y56.98 Z-7.47 A94.95 B-24.19 C22.52
M280 P7 S258
G4 S2.000
G1 X-71.86 Y42.18 Z-9.22 A93.36 B-37.21 C20.82 
M280 P7 S57
G1 X-112.967000 Y-54.941000 Z-54.503700 A1.031760 B-22.970700 C1.120590
G1 X-112.967000 Y-54.941000 Z-54.503700 A1.031760 B-22.970700 C1.120590


